BRITE-PL2 (HEWELIUSZ)   
1 40119U 14049B   26068.87400651  .00002742  00000+0  26097-3 0  9997
2 40119  97.8982 180.2053 0015445  80.5248 279.7716 14.94186201626611
STARLINK-33962          
1 63950U 25098AA  26068.88061964  .00002262  00000+0  19731-3 0  9996
2 63950  70.0006 273.8662 0002904 266.7176  93.3651 14.98334072 46583
