[{"OBJECT_NAME":"BRITE-PL2 (HEWELIUSZ)","OBJECT_ID":"2014-049B","EPOCH":"2026-03-09T20:58:34.162464","MEAN_MOTION":14.94186201,"ECCENTRICITY":0.00154454,"INCLINATION":97.8982,"RA_OF_ASC_NODE":180.2053,"ARG_OF_PERICENTER":80.5248,"MEAN_ANOMALY":279.7716,"EPHEMERIS_TYPE":0,"CLASSIFICATION_TYPE":"U","NORAD_CAT_ID":40119,"ELEMENT_SET_NO":999,"REV_AT_EPOCH":62661,"BSTAR":0.00026097212,"MEAN_MOTION_DOT":2.742e-5,"MEAN_MOTION_DDOT":0},{"OBJECT_NAME":"STARLINK-33962","OBJECT_ID":"2025-098AA","EPOCH":"2026-03-09T21:08:05.537760","MEAN_MOTION":14.98334072,"ECCENTRICITY":0.00029044,"INCLINATION":70.0006,"RA_OF_ASC_NODE":273.8662,"ARG_OF_PERICENTER":266.7176,"MEAN_ANOMALY":93.3651,"EPHEMERIS_TYPE":0,"CLASSIFICATION_TYPE":"U","NORAD_CAT_ID":63950,"ELEMENT_SET_NO":999,"REV_AT_EPOCH":4658,"BSTAR":0.00019731083,"MEAN_MOTION_DOT":2.262e-5,"MEAN_MOTION_DDOT":0}]
